{"type": "FeatureCollection", "features": [ {"type": "Feature", "properties": {"norad_id": 54234, "name": "NOAA 21 (JPSS-2)", "group": "weather", "lat": -10.947832564440716, "lon": -79.76852723648244, "alt_km": 830.2383936298529, "timestamp": "2025-12-08T03:50:06.648911+00:00", "meta": {"OBJECT_NAME": "NOAA 21 (JPSS-2)", "OBJECT_ID": "2022-150A", "EPOCH": "2025-12-07T05:53:44.252448", "MEAN_MOTION": 14.19521911, "ECCENTRICITY": 0.00024205, "INCLINATION": 98.7454, "RA_OF_ASC_NODE": 277.6227, "ARG_OF_PERICENTER": 48.5263, "MEAN_ANOMALY": 311.612, "EPHEMERIS_TYPE": 0, "CLASSIFICATION_TYPE": "U", "NORAD_CAT_ID": 54234, "ELEMENT_SET_NO": 999, "REV_AT_EPOCH": 15931, "BSTAR": 0.00011889031, "MEAN_MOTION_DOT": 2.07e-06, "MEAN_MOTION_DDOT": 0}, "tle": {"line1": "1 54234U 22150A   25341.24565107  .00000207  00000+0  11889-3 0  9991", "line2": "2 54234  98.7454 277.6227 0002420  48.5263 311.6120 14.19521911159313"}}, "geometry": {"type": "Point", "coordinates": [-79.76852723648244, -10.947832564440716]}}, {"type": "Feature", "properties": {"norad_id": 54743, "name": "METEOSAT-12 (MTG-I1)", "group": "weather", "lat": 0.7143885955910758, "lon": 134.443135058262, "alt_km": 35788.22679714344, "timestamp": "2025-12-08T03:50:06.648923+00:00", "meta": {"OBJECT_NAME": "METEOSAT-12 (MTG-I1)", "OBJECT_ID": "2022-170C", "EPOCH": "2025-12-07T06:47:09.325248", "MEAN_MOTION": 1.00274559, "ECCENTRICITY": 0.00015238, "INCLINATION": 0.7237, "RA_OF_ASC_NODE": 30.7092, "ARG_OF_PERICENTER": 221.9179, "MEAN_ANOMALY": 285.2229, "EPHEMERIS_TYPE": 0, "CLASSIFICATION_TYPE": "U", "NORAD_CAT_ID": 54743, "ELEMENT_SET_NO": 999, "REV_AT_EPOCH": 1105, "BSTAR": 0, "MEAN_MOTION_DOT": -2e-08, "MEAN_MOTION_DDOT": 0}, "tle": {"line1": "1 54743U 22170C   25341.28274682 -.00000002  00000+0  00000+0 0  9990", "line2": "2 54743   0.7237  30.7092 0001523 221.9179 285.2229  1.00274559 11057"}}, "geometry": {"type": "Point", "coordinates": [134.443135058262, 0.7143885955910758]}}, {"type": "Feature", "properties": {"norad_id": 55973, "name": "TIANMU-1 03", "group": "weather", "lat": 76.02966612264265, "lon": 112.65474380946053, "alt_km": 433.7043823156546, "timestamp": "2025-12-08T03:50:06.648934+00:00", "meta": {"OBJECT_NAME": "TIANMU-1 03", "OBJECT_ID": "2023-039A", "EPOCH": "2025-12-07T05:40:29.849376", "MEAN_MOTION": 15.4068462, "ECCENTRICITY": 0.00045249, "INCLINATION": 97.511, "RA_OF_ASC_NODE": 143.7358, "ARG_OF_PERICENTER": 76.886, "MEAN_ANOMALY": 283.289, "EPHEMERIS_TYPE": 0, "CLASSIFICATION_TYPE": "U", "NORAD_CAT_ID": 55973, "ELEMENT_SET_NO": 999, "REV_AT_EPOCH": 15121, "BSTAR": 0.00055497117, "MEAN_MOTION_DOT": 0.00022605, "MEAN_MOTION_DDOT": 0}, "tle": {"line1": "1 55973U 23039A   25341.23645659  .00022605  00000+0  55497-3 0  9998", "line2": "2 55973  97.5110 143.7358 0004524  76.8860 283.2890 15.40684620151213"}}, "geometry": {"type": "Point", "coordinates": [112.65474380946053, 76.02966612264265]}}, {"type": "Feature", "properties": {"norad_id": 55974, "name": "TIANMU-1 04", "group": "weather", "lat": -6.7774541792297, "lon": -37.02043565226709, "alt_km": 448.5769508853018, "timestamp": "2025-12-08T03:50:06.648944+00:00", "meta": {"OBJECT_NAME": "TIANMU-1 04", "OBJECT_ID": "2023-039B", "EPOCH": "2025-12-07T05:12:37.096128", "MEAN_MOTION": 15.41016668, "ECCENTRICITY": 0.00052009, "INCLINATION": 97.5042, "RA_OF_ASC_NODE": 142.9091, "ARG_OF_PERICENTER": 72.4933, "MEAN_ANOMALY": 287.6881, "EPHEMERIS_TYPE": 0, "CLASSIFICATION_TYPE": "U", "NORAD_CAT_ID": 55974, "ELEMENT_SET_NO": 999, "REV_AT_EPOCH": 15121, "BSTAR": 0.00056984361, "MEAN_MOTION_DOT": 0.00023475, "MEAN_MOTION_DDOT": 0}, "tle": {"line1": "1 55974U 23039B   25341.21709602  .00023475  00000+0  56984-3 0  9994", "line2": "2 55974  97.5042 142.9091 0005200  72.4933 287.6881 15.41016668151218"}}, "geometry": {"type": "Point", "coordinates": [-37.02043565226709, -6.7774541792297]}}, {"type": "Feature", "properties": {"norad_id": 55975, "name": "TIANMU-1 05", "group": "weather", "lat": -44.40816267638361, "lon": -43.0542269902975, "alt_km": 452.9522515974768, "timestamp": "2025-12-08T03:50:06.648960+00:00", "meta": {"OBJECT_NAME": "TIANMU-1 05", "OBJECT_ID": "2023-039C", "EPOCH": "2025-12-07T06:35:54.835872", "MEAN_MOTION": 15.40644523, "ECCENTRICITY": 0.00043745, "INCLINATION": 97.5088, "RA_OF_ASC_NODE": 143.4607, "ARG_OF_PERICENTER": 93.5526, "MEAN_ANOMALY": 266.6221, "EPHEMERIS_TYPE": 0, "CLASSIFICATION_TYPE": "U", "NORAD_CAT_ID": 55975, "ELEMENT_SET_NO": 999, "REV_AT_EPOCH": 15120, "BSTAR": 0.00055901574, "MEAN_MOTION_DOT": 0.0002274, "MEAN_MOTION_DDOT": 0}, "tle": {"line1": "1 55975U 23039C   25341.27494023  .00022740  00000+0  55902-3 0  9992", "line2": "2 55975  97.5088 143.4607 0004374  93.5526 266.6221 15.40644523151201"}}, "geometry": {"type": "Point", "coordinates": [-43.0542269902975, -44.40816267638361]}}, {"type": "Feature", "properties": {"norad_id": 55976, "name": "TIANMU-1 06", "group": "weather", "lat": 6.035800084599384, "lon": -34.370158424686096, "alt_km": 445.018937428511, "timestamp": "2025-12-08T03:50:06.648971+00:00", "meta": {"OBJECT_NAME": "TIANMU-1 06", "OBJECT_ID": "2023-039D", "EPOCH": "2025-12-07T05:16:01.168608", "MEAN_MOTION": 15.41068958, "ECCENTRICITY": 0.0004685, "INCLINATION": 97.51, "RA_OF_ASC_NODE": 143.8641, "ARG_OF_PERICENTER": 88.9502, "MEAN_ANOMALY": 271.2281, "EPHEMERIS_TYPE": 0, "CLASSIFICATION_TYPE": "U", "NORAD_CAT_ID": 55976, "ELEMENT_SET_NO": 999, "REV_AT_EPOCH": 15121, "BSTAR": 0.00055605124, "MEAN_MOTION_DOT": 0.0002294, "MEAN_MOTION_DDOT": 0}, "tle": {"line1": "1 55976U 23039D   25341.21945797  .00022940  00000+0  55605-3 0  9998", "line2": "2 55976  97.5100 143.8641 0004685  88.9502 271.2281 15.41068958151218"}}, "geometry": {"type": "Point", "coordinates": [-34.370158424686096, 6.035800084599384]}}, {"type": "Feature", "properties": {"norad_id": 56232, "name": "FENGYUN 3G", "group": "weather", "lat": 11.383598983665097, "lon": -99.18436483669925, "alt_km": 408.46710549110503, "timestamp": "2025-12-08T03:50:06.648981+00:00", "meta": {"OBJECT_NAME": "FENGYUN 3G", "OBJECT_ID": "2023-055A", "EPOCH": "2025-12-07T06:09:17.858016", "MEAN_MOTION": 15.53165654, "ECCENTRICITY": 0.00092444, "INCLINATION": 49.994, "RA_OF_ASC_NODE": 255.7412, "ARG_OF_PERICENTER": 122.3783, "MEAN_ANOMALY": 237.8081, "EPHEMERIS_TYPE": 0, "CLASSIFICATION_TYPE": "U", "NORAD_CAT_ID": 56232, "ELEMENT_SET_NO": 999, "REV_AT_EPOCH": 15017, "BSTAR": 0.00072207278, "MEAN_MOTION_DOT": 0.00046093, "MEAN_MOTION_DDOT": 0}, "tle": {"line1": "1 56232U 23055A   25341.25645669  .00046093  00000+0  72207-3 0  9993", "line2": "2 56232  49.9940 255.7412 0009244 122.3783 237.8081 15.53165654150170"}}, "geometry": {"type": "Point", "coordinates": [-99.18436483669925, 11.383598983665097]}}, {"type": "Feature", "properties": {"norad_id": 57166, "name": "METEOR-M2 3", "group": "weather", "lat": -1.6558078108576155, "lon": -144.47278054770936, "alt_km": 817.7545081528187, "timestamp": "2025-12-08T03:50:06.648991+00:00", "meta": {"OBJECT_NAME": "METEOR-M2 3", "OBJECT_ID": "2023-091A", "EPOCH": "2025-12-07T06:44:58.623648", "MEAN_MOTION": 14.24025146, "ECCENTRICITY": 0.00042047, "INCLINATION": 98.6386, "RA_OF_ASC_NODE": 34.9158, "ARG_OF_PERICENTER": 23.7522, "MEAN_ANOMALY": 336.385, "EPHEMERIS_TYPE": 0, "CLASSIFICATION_TYPE": "U", "NORAD_CAT_ID": 57166, "ELEMENT_SET_NO": 999, "REV_AT_EPOCH": 12720, "BSTAR": 4.8237496e-05, "MEAN_MOTION_DOT": 6.7e-07, "MEAN_MOTION_DDOT": 0}, "tle": {"line1": "1 57166U 23091A   25341.28123407  .00000067  00000+0  48237-4 0  9992", "line2": "2 57166  98.6386  34.9158 0004204  23.7522 336.3850 14.24025146127207"}}, "geometry": {"type": "Point", "coordinates": [-144.47278054770936, -1.6558078108576155]}}, {"type": "Feature", "properties": {"norad_id": 57399, "name": "TIANMU-1 07", "group": "weather", "lat": 79.96279999392574, "lon": -101.58167260751675, "alt_km": 470.6583067742995, "timestamp": "2025-12-08T03:50:06.649001+00:00", "meta": {"OBJECT_NAME": "TIANMU-1 07", "OBJECT_ID": "2023-101A", "EPOCH": "2025-12-07T05:24:31.364928", "MEAN_MOTION": 15.27953043, "ECCENTRICITY": 0.00056132, "INCLINATION": 97.2879, "RA_OF_ASC_NODE": 31.1973, "ARG_OF_PERICENTER": 95.4546, "MEAN_ANOMALY": 264.7334, "EPHEMERIS_TYPE": 0, "CLASSIFICATION_TYPE": "U", "NORAD_CAT_ID": 57399, "ELEMENT_SET_NO": 999, "REV_AT_EPOCH": 13231, "BSTAR": 0.00042182074, "MEAN_MOTION_DOT": 0.00011444, "MEAN_MOTION_DDOT": 0}, "tle": {"line1": "1 57399U 23101A   25341.22536302  .00011444  00000+0  42182-3 0  9991", "line2": "2 57399  97.2879  31.1973 0005613  95.4546 264.7334 15.27953043132317"}}, "geometry": {"type": "Point", "coordinates": [-101.58167260751675, 79.96279999392574]}}, {"type": "Feature", "properties": {"norad_id": 57400, "name": "TIANMU-1 08", "group": "weather", "lat": -78.53509286572844, "lon": 71.02681785689097, "alt_km": 494.46086135601945, "timestamp": "2025-12-08T03:50:06.649011+00:00", "meta": {"OBJECT_NAME": "TIANMU-1 08", "OBJECT_ID": "2023-101B", "EPOCH": "2025-12-07T06:11:08.552832", "MEAN_MOTION": 15.27938086, "ECCENTRICITY": 0.00075575, "INCLINATION": 97.2867, "RA_OF_ASC_NODE": 31.0279, "ARG_OF_PERICENTER": 99.1458, "MEAN_ANOMALY": 261.0637, "EPHEMERIS_TYPE": 0, "CLASSIFICATION_TYPE": "U", "NORAD_CAT_ID": 57400, "ELEMENT_SET_NO": 999, "REV_AT_EPOCH": 13231, "BSTAR": 0.00038957822, "MEAN_MOTION_DOT": 0.00010562, "MEAN_MOTION_DDOT": 0}, "tle": {"line1": "1 57400U 23101B   25341.25773788  .00010562  00000+0  38958-3 0  9994", "line2": "2 57400  97.2867  31.0279 0007557  99.1458 261.0637 15.27938086132313"}}, "geometry": {"type": "Point", "coordinates": [71.02681785689097, -78.53509286572844]}}]}